[{"OBJECT_NAME":"STARLINK-6166","OBJECT_ID":"2023-061K","EPOCH":"2026-03-09T22:00:01.999584","MEAN_MOTION":15.13484228,"ECCENTRICITY":0.00023094,"INCLINATION":42.9998,"RA_OF_ASC_NODE":195.708,"ARG_OF_PERICENTER":284.6312,"MEAN_ANOMALY":123.1748,"EPHEMERIS_TYPE":0,"CLASSIFICATION_TYPE":"U","NORAD_CAT_ID":56383,"ELEMENT_SET_NO":999,"REV_AT_EPOCH":572,"BSTAR":0.0043761353,"MEAN_MOTION_DOT":0.00080384,"MEAN_MOTION_DDOT":0},{"OBJECT_NAME":"CZ-4B R\/B","OBJECT_ID":"2011-079B","EPOCH":"2026-03-09T23:23:58.850880","MEAN_MOTION":15.14795537,"ECCENTRICITY":0.01251775,"INCLINATION":98.4688,"RA_OF_ASC_NODE":256.8191,"ARG_OF_PERICENTER":336.5095,"MEAN_ANOMALY":23.0446,"EPHEMERIS_TYPE":0,"CLASSIFICATION_TYPE":"U","NORAD_CAT_ID":38039,"ELEMENT_SET_NO":999,"REV_AT_EPOCH":77480,"BSTAR":0.00026364037,"MEAN_MOTION_DOT":5.867e-5,"MEAN_MOTION_DDOT":0}]
